[{"OBJECT_NAME":"ASTROCAST-0401","OBJECT_ID":"2023-001DF","EPOCH":"2026-03-09T17:04:53.382144","MEAN_MOTION":15.26258462,"ECCENTRICITY":0.00081423,"INCLINATION":97.5547,"RA_OF_ASC_NODE":160.5206,"ARG_OF_PERICENTER":188.4231,"MEAN_ANOMALY":171.6872,"EPHEMERIS_TYPE":0,"CLASSIFICATION_TYPE":"U","NORAD_CAT_ID":55110,"ELEMENT_SET_NO":999,"REV_AT_EPOCH":17602,"BSTAR":0.00037868349,"MEAN_MOTION_DOT":9.75e-5,"MEAN_MOTION_DDOT":0},{"OBJECT_NAME":"STARLINK-32750","OBJECT_ID":"2025-006U","EPOCH":"2026-03-09T00:18:25.672032","MEAN_MOTION":15.27606075,"ECCENTRICITY":0.00012043,"INCLINATION":43.0026,"RA_OF_ASC_NODE":296.0022,"ARG_OF_PERICENTER":282.8978,"MEAN_ANOMALY":77.1739,"EPHEMERIS_TYPE":0,"CLASSIFICATION_TYPE":"U","NORAD_CAT_ID":62572,"ELEMENT_SET_NO":999,"REV_AT_EPOCH":6476,"BSTAR":0.0010087082,"MEAN_MOTION_DOT":0.00027621,"MEAN_MOTION_DDOT":0}]
