ASTROCAST-0401          
1 55110U 23001DF  26068.71172895  .00009750  00000+0  37868-3 0  9995
2 55110  97.5547 160.5206 0008142 188.4231 171.6872 15.26258462176022
STARLINK-32750          
1 62572U 25006U   26068.01279713  .00027621  00000+0  10087-2 0  9992
2 62572  43.0026 296.0022 0001204 282.8978  77.1739 15.27606075 64767
